NORAD_CAT_ID,OBJECT_NAME,OBJECT_TYPE,EPOCH,MEAN_MOTION,ECCENTRICITY,INCLINATION,RA_OF_ASC_NODE,ARG_OF_PERICENTER,MEAN_ANOMALY,BSTAR,MEAN_MOTION_DOT,MEAN_MOTION_DDOT,TLE_LINE0,TLE_LINE1,TLE_LINE2,SEMIMAJOR_AXIS,PERIOD,APOGEE,PERIGEE,DECAYED
51742.0,STARLINK-3521,PAYLOAD,2023-11-06 22:37:33,15.08799524,0.0001506,53.2165,191.9346,89.3272,270.7893,-0.0010629,-0.00017145,0.0,0 STARLINK-3521,1 51742U 22016AE  23310.94275117 -.00017145  00000-0 -10629-2 0  9995,2 51742  53.2165 191.9346 0001506  89.3272 270.7893 15.08799524 94671,6918.004,95.44,540.911,538.827,0.0
51742.0,STARLINK-3521,PAYLOAD,2023-11-07 01:48:19,15.08797942,0.0001499,53.2169,191.3391,89.121,270.9954,-0.0012025,-0.00019353,0.0,0 STARLINK-3521,1 51742U 22016AE  23311.07523087 -.00019353  00000-0 -12025-2 0  9997,2 51742  53.2169 191.3391 0001499  89.1210 270.9954 15.08797942 95820,6918.009,95.44,540.911,538.837,0.0
51742.0,STARLINK-3521,PAYLOAD,2023-11-07 09:45:16,15.08800659,0.0001126,53.2172,189.8525,92.0696,268.0426,-0.00061205,-0.00010005,0.0,0 STARLINK-3521,1 51742U 22016AE  23311.40643797 -.00010005  00000-0 -61205-3 0  9995,2 51742  53.2172 189.8525 0001126  92.0696 268.0426 15.08800659 95870,6918.001,95.44,540.645,539.087,0.0
51742.0,STARLINK-3521,PAYLOAD,2023-11-08 01:39:09,15.08811186,0.0001433,53.2167,186.878,98.1625,261.953,0.00070065,0.00010872,0.0,0 STARLINK-3521,1 51742U 22016AE  23312.06885643  .00010872  00000-0  70065-3 0  9990,2 51742  53.2167 186.8780 0001433  98.1625 261.9530 15.08811186 95970,6917.968,95.439,540.825,538.842,0.0
51742.0,STARLINK-3521,PAYLOAD,2023-11-08 19:08:23,15.08840209,0.0001254,53.2169,183.6076,89.9467,270.1669,0.00081831,0.00012759,0.0,0 STARLINK-3521,1 51742U 22016AE  23312.79749661  .00012759  00000-0  81831-3 0  9998,2 51742  53.2169 183.6076 0001254  89.9467 270.1669 15.08840209 96084,6917.88,95.438,540.612,538.877,0.0
51742.0,STARLINK-3521,PAYLOAD,2023-11-08 22:19:09,15.08850698,0.0001329,53.2163,183.0136,97.8374,262.2769,0.00099791,0.00015634,0.0,0 STARLINK-3521,1 51742U 22016AE  23312.92997316  .00015634  00000-0  99791-3 0  9994,2 51742  53.2163 183.0136 0001329  97.8374 262.2769 15.08850698 94979,6917.848,95.437,540.632,538.793,0.0
51742.0,STARLINK-3521,PAYLOAD,2023-11-09 18:59:09,15.08859756,0.0001303,53.2166,179.15,101.824,258.2898,0.00039243,5.966e-05,0.0,0 STARLINK-3521,1 51742U 22016AE  23313.79108263  .00005966  00000-0  39243-3 0  9998,2 51742  53.2166 179.1500 0001303 101.8240 258.2898 15.08859756 96236,6917.82,95.436,540.586,538.784,0.0
51742.0,STARLINK-3521,PAYLOAD,2023-11-09 22:09:55,15.08861275,0.0001316,53.2159,178.5537,91.2278,268.8865,0.00039431,5.997e-05,0.0,0 STARLINK-3521,1 51742U 22016AE  23313.92356065  .00005997  00000-0  39431-3 0  9991,2 51742  53.2159 178.5537 0001316  91.2278 268.8865 15.08861275 95125,6917.815,95.436,540.591,538.77,0.0
51742.0,STARLINK-3521,PAYLOAD,2023-11-10 07:42:14,15.08854834,0.0001476,53.2165,176.7709,97.0539,263.0621,7.7838e-05,9.52e-06,0.0,0 STARLINK-3521,1 51742U 22016AE  23314.32099810  .00000952  00000-0  77838-4 0  9998,2 51742  53.2165 176.7709 0001476  97.0539 263.0621 15.08854834 96316,6917.835,95.437,540.721,538.679,0.0
51742.0,STARLINK-3521,PAYLOAD,2023-11-10 20:25:19,15.0885033,0.0001564,53.2164,174.3918,106.1363,253.9802,-8.0877e-05,-1.575e-05,0.0,0 STARLINK-3521,1 51742U 22016AE  23314.85091482 -.00001575  00000-0 -80877-4 0  9994,2 51742  53.2164 174.3918 0001564 106.1363 253.9802 15.08850330 95265,6917.849,95.437,540.796,538.632,0.0
51742.0,STARLINK-3521,PAYLOAD,2023-11-10 23:36:05,15.08850081,0.0001469,53.2167,173.7958,95.0399,265.0761,-5.3963e-05,-1.147e-05,0.0,0 STARLINK-3521,1 51742U 22016AE  23314.98339552 -.00001147  00000-0 -53963-4 0  9992,2 51742  53.2167 173.7958 0001469  95.0399 265.0761 15.08850081 96413,6917.85,95.437,540.731,538.698,0.0
51742.0,STARLINK-3521,PAYLOAD,2023-11-11 20:16:06,15.08843483,0.0001521,53.2166,169.93,97.7758,262.3406,-6.4679e-05,-1.317e-05,0.0,0 STARLINK-3521,1 51742U 22016AE  23315.84451683 -.00001317  00000-0 -64679-4 0  9993,2 51742  53.2166 169.9300 0001521  97.7758 262.3406 15.08843483 96545,6917.87,95.437,540.787,538.683,0.0
51742.0,STARLINK-3521,PAYLOAD,2023-11-11 21:51:29,15.08841825,0.0001483,53.2164,169.6324,90.6412,269.475,-7.7152e-05,-1.516e-05,0.0,0 STARLINK-3521,1 51742U 22016AE  23315.91075721 -.00001516  00000-0 -77152-4 0  9997,2 51742  53.2164 169.6324 0001483  90.6412 269.4750 15.08841825 95426,6917.875,95.437,540.766,538.714,0.0
51742.0,STARLINK-3521,PAYLOAD,2023-11-11 23:26:52,15.08845979,0.0001456,53.2172,169.3347,93.842,266.2739,-2.5222e-05,-6.89e-06,0.0,0 STARLINK-3521,1 51742U 22016AE  23315.97699953 -.00000689  00000-0 -25222-4 0  9993,2 51742  53.2172 169.3347 0001456  93.8420 266.2739 15.08845979 95438,6917.862,95.437,540.734,538.72,0.0
51742.0,STARLINK-3521,PAYLOAD,2023-11-12 21:42:16,15.08845512,0.0001454,53.2169,165.171,96.206,263.9098,0.00010134,1.325e-05,0.0,0 STARLINK-3521,1 51742U 22016AE  23316.90435589  .00001325  00000-0  10134-3 0  9991,2 51742  53.2169 165.1710 0001454  96.2060 263.9098 15.08845512 95577,6917.864,95.437,540.734,538.723,0.0
51742.0,STARLINK-3521,PAYLOAD,2023-11-13 13:36:07,15.08844341,0.0001472,53.2166,162.1984,89.6415,270.4746,0.00011223,1.499e-05,0.0,0 STARLINK-3521,1 51742U 22016AE  23317.56675603  .00001499  00000-0  11223-3 0  9999,2 51742  53.2166 162.1984 0001472  89.6415 270.4746 15.08844341 95677,6917.867,95.437,540.75,538.714,0.0
51742.0,STARLINK-3521,PAYLOAD,2023-11-13 19:57:40,15.08845252,0.000146,53.2166,161.0087,90.6308,269.4851,0.00011129,1.484e-05,0.0,0 STARLINK-3521,1 51742U 22016AE  23317.83171481  .00001484  00000-0  11129-3 0  9993,2 51742  53.2166 161.0087 0001460  90.6308 269.4851 15.08845252 95711,6917.864,95.437,540.739,538.719,0.0
51742.0,STARLINK-3521,PAYLOAD,2023-11-13 23:08:26,15.08845794,0.0001466,53.2165,160.414,90.3127,269.8033,0.00011184,1.493e-05,0.0,0 STARLINK-3521,1 51742U 22016AE  23317.96419409  .00001493  00000-0  11184-3 0  9993,2 51742  53.2165 160.4140 0001466  90.3127 269.8033 15.08845794 96869,6917.863,95.437,540.742,538.714,0.0
51742.0,STARLINK-3521,PAYLOAD,2023-11-14 07:05:22,15.08838024,0.0001486,53.2161,158.9267,89.4651,270.6511,3.1342e-05,2.11e-06,0.0,0 STARLINK-3521,1 51742U 22016AE  23318.29540040  .00000211  00000-0  31342-4 0  9992,2 51742  53.2161 158.9267 0001486  89.4651 270.6511 15.08838024 96915,6917.886,95.438,540.779,538.723,0.0
51742.0,STARLINK-3521,PAYLOAD,2023-11-15 13:17:41,15.0884156,0.0001459,53.2122,153.2737,97.9906,262.1251,3.2786e-05,2.34e-06,0.0,0 STARLINK-3521,1 51742U 22016AE  23319.55395625  .00000234  00000-0  32786-4 0  9997,2 51742  53.2122 153.2737 0001459  97.9906 262.1251 15.08841560 95970,6917.876,95.437,540.75,538.731,0.0
51742.0,STARLINK-3521,PAYLOAD,2023-11-16 13:08:28,15.08842146,0.0001434,53.2159,148.8151,92.2212,267.8945,3.6425e-05,2.92e-06,0.0,0 STARLINK-3521,1 51742U 22016AE  23320.54755506  .00000292  00000-0  36425-4 0  9994,2 51742  53.2159 148.8151 0001434  92.2212 267.8945 15.08842146 96122,6917.874,95.437,540.731,538.747,0.0
51742.0,STARLINK-3521,PAYLOAD,2023-11-17 05:02:20,15.08838165,0.0001443,53.2157,145.8419,90.1247,269.991,6.8169e-06,-1.79e-06,0.0,0 STARLINK-3521,1 51742U 22016AE  23321.20995913 -.00000179  00000-0  68169-5 0  9992,2 51742  53.2157 145.8419 0001443  90.1247 269.9910 15.08838165 97356,6917.886,95.438,540.749,538.753,0.0
51742.0,STARLINK-3521,PAYLOAD,2023-11-17 12:59:15,15.08840069,0.0001402,53.2155,144.3545,91.2581,268.8572,2.2278e-05,6.7e-07,0.0,0 STARLINK-3521,1 51742U 22016AE  23321.54115730  .00000067  00000-0  22278-4 0  9995,2 51742  53.2155 144.3545 0001402  91.2581 268.8572 15.08840069 96274,6917.88,95.438,540.715,538.775,0.0
51742.0,STARLINK-3521,PAYLOAD,2023-11-17 19:20:48,15.08839788,0.0001335,53.2167,143.1649,89.858,270.2565,4.2174e-05,3.83e-06,0.0,0 STARLINK-3521,1 51742U 22016AE  23321.80611839  .00000383  00000-0  42174-4 0  9993,2 51742  53.2167 143.1649 0001335  89.8580 270.2565 15.08839788 96316,6917.881,95.438,540.67,538.822,0.0
51742.0,STARLINK-3521,PAYLOAD,2023-11-18 04:53:07,15.08836452,0.0001296,53.2167,141.3816,91.4288,268.6853,5.6468e-05,6.11e-06,0.0,0 STARLINK-3521,1 51742U 22016AE  23322.20356019  .00000611  00000-0  56468-4 0  9999,2 51742  53.2167 141.3816 0001296  91.4288 268.6853 15.08836452 96374,6917.891,95.438,540.653,538.86,0.0
51742.0,STARLINK-3521,PAYLOAD,2023-11-18 19:11:36,15.08835372,0.0001388,53.2171,138.7043,85.9192,274.1959,3.8279e-05,3.21e-06,0.0,0 STARLINK-3521,1 51742U 22016AE  23322.79972327  .00000321  00000-0  38279-4 0  9997,2 51742  53.2171 138.7043 0001388  85.9192 274.1959 15.08835372 97599,6917.895,95.438,540.72,538.799,0.0
51742.0,STARLINK-3521,PAYLOAD,2023-11-19 04:43:54,15.08836441,0.0001399,53.2171,136.9202,86.1622,273.953,3.6448e-05,2.92e-06,0.0,0 STARLINK-3521,1 51742U 22016AE  23323.19716382  .00000292  00000-0  36448-4 0  9992,2 51742  53.2171 136.9202 0001399  86.1622 273.9530 15.08836441 96521,6917.891,95.438,540.724,538.788,0.0
51742.0,STARLINK-3521,PAYLOAD,2023-11-19 20:37:45,15.0884176,0.0001345,53.2169,133.9461,84.5515,275.5631,6.2517e-05,7.07e-06,0.0,0 STARLINK-3521,1 51742U 22016AE  23323.85955954  .00000707  00000-0  62517-4 0  9992,2 51742  53.2169 133.9461 0001345  84.5515 275.5631 15.08841760 96627,6917.875,95.437,540.67,538.81,0.0
51742.0,STARLINK-3521,PAYLOAD,2023-11-19 23:48:32,15.08843733,0.0001359,53.217,133.3515,85.3095,274.8052,7.7221e-05,9.41e-06,0.0,0 STARLINK-3521,1 51742U 22016AE  23323.99203770  .00000941  00000-0  77221-4 0  9997,2 51742  53.2170 133.3515 0001359  85.3095 274.8052 15.08843733 97778,6917.869,95.437,540.674,538.794,0.0
51742.0,STARLINK-3521,PAYLOAD,2023-11-20 04:34:41,15.08839945,0.0001381,53.217,132.4593,87.0366,273.0784,6.5643e-05,7.57e-06,0.0,0 STARLINK-3521,1 51742U 22016AE  23324.19076088  .00000757  00000-0  65643-4 0  9990,2 51742  53.2170 132.4593 0001381  87.0366 273.0784 15.08839945 96670,6917.881,95.438,540.701,538.79,0.0
